STARLINK-5813           
1 55790U 23028BB  26068.73602869  .00000153  00000+0  20649-4 0  9997
2 55790  70.0005 204.3170 0003099 270.2686  89.8118 14.98330414167038
LEMUR-2-ALISIA          
1 62706U 25009DB  26068.73770453  .00009177  00000+0  72005-3 0  9995
2 62706  97.7037 151.6973 0006582 159.9869 200.1615 15.01147598 85230
